NAVSTAR 77 (USA 289)    
1 43873U 18109A   23228.11794622 -.00000015  00000+0  00000+0 0  9998
2 43873  55.1873 133.1251 0025191 192.0068 277.2154  2.00568242 34246
